{
    "links": {
        "self": "http://www.neowsapp.com/rest/v1/neo/3630273?api_key=iIulBulltgU6a56xZRHN4H3l9WmuAYTsLGpBGhQ2"
    },
    "id": "3630273",
    "neo_reference_id": "3630273",
    "name": "(2013 EP4)",
    "designation": "2013 EP4",
    "nasa_jpl_url": "http://ssd.jpl.nasa.gov/sbdb.cgi?sstr=3630273",
    "absolute_magnitude_h": 25.4,
    "estimated_diameter": {
        "kilometers": {
            "estimated_diameter_min": 0.022108281,
            "estimated_diameter_max": 0.0494356193
        },
        "meters": {
            "estimated_diameter_min": 22.1082810359,
            "estimated_diameter_max": 49.435619262
        },
        "miles": {
            "estimated_diameter_min": 0.0137374447,
            "estimated_diameter_max": 0.0307178602
        },
        "feet": {
            "estimated_diameter_min": 72.5337327539,
            "estimated_diameter_max": 162.1903570994
        }
    },
    "is_potentially_hazardous_asteroid": false,
    "close_approach_data": [
        {
            "close_approach_date": "2013-02-27",
            "close_approach_date_full": "2013-Feb-27 06:44",
            "epoch_date_close_approach": 1361947440000,
            "relative_velocity": {
                "kilometers_per_second": "9.818429722",
                "kilometers_per_hour": "35346.3469992257",
                "miles_per_hour": "21962.8454451578"
            },
            "miss_distance": {
                "astronomical": "0.0521108462",
                "lunar": "20.2711191718",
                "kilometers": "7795671.595417594",
                "miles": "4844005.7098630372"
            },
            "orbiting_body": "Earth"
        }
    ],
    "orbital_data": {
        "orbit_id": "6",
        "orbit_determination_date": "2017-04-06 08:46:35",
        "first_observation_date": "2013-03-03",
        "last_observation_date": "2013-03-05",
        "data_arc_in_days": 2,
        "observations_used": 23,
        "orbit_uncertainty": "8",
        "minimum_orbit_intersection": ".0277371",
        "jupiter_tisserand_invariant": "3.914",
        "epoch_osculation": "2456355.5",
        "eccentricity": ".4678357506592941",
        "semi_major_axis": "1.805585825074234",
        "inclination": "7.499522337109378",
        "ascending_node_longitude": "161.58684463",
        "orbital_period": "886.1875243489775",
        "perihelion_distance": ".9608682252208487",
        "perihelion_argument": "319.590203535676",
        "aphelion_distance": "2.650303424927619",
        "perihelion_time": "2456321.966598389918",
        "mean_anomaly": "13.62242668502699",
        "mean_motion": ".406234561093001",
        "equinox": "J2000",
        "orbit_class": {
            "orbit_class_type": "APO",
            "orbit_class_description": "Near-Earth asteroid orbits which cross the Earth’s orbit similar to that of 1862 Apollo",
            "orbit_class_range": "a (semi-major axis) > 1.0 AU; q (perihelion) < 1.017 AU"
        }
    },
    "is_sentry_object": false
}